HULIANWANG DIGUI-97     
1 66413U 25258B   26062.76234324 -.00000047  00000+0  16548-3 0  9997
2 66413  50.0020 314.0074 0000392  93.2002 266.8915 13.29332168 15706
HULIANWANG DIGUI-98     
1 66414U 25258C   26062.75396544 -.00000050  00000+0  16013-3 0  9991
2 66414  50.0057 314.0053 0000432 106.3388 253.7532 13.29333708 15703
HULIANWANG DIGUI-99     
1 66415U 25258D   26062.72057640 -.00000047  00000+0  16612-3 0  9991
2 66415  50.0055 313.8259 0000318  85.1823 274.9086 13.29331330 15694
HULIANWANG DIGUI-100    
1 66416U 25258E   26062.74561778 -.00000049  00000+0  16075-3 0  9991
2 66416  50.0059 313.9642 0000300  81.9934 278.0972 13.29334227 15714
HULIANWANG DIGUI-101    
1 66417U 25258F   26062.73727595 -.00000049  00000+0  16240-3 0  9996
2 66417  50.0009 313.8628 0000330  78.3780 281.7129 13.29332439 15713
HULIANWANG DIGUI-102    
1 66418U 25258G   26062.78736642 -.00000054  00000+0  15124-3 0  9991
2 66418  50.0023 313.4734 0000348  99.9810 260.1101 13.29334426 15715
HULIANWANG DIGUI-103    
1 66419U 25258H   26062.77903254 -.00000055  00000+0  14881-3 0  9996
2 66419  50.0016 313.4221 0000277  79.6819 280.4084 13.29333420 15712
HULIANWANG DIGUI-104    
1 66420U 25258J   26062.77069298 -.00000056  00000+0  14655-3 0  9999
2 66420  50.0033 313.4011 0000368 103.9793 256.1120 13.29332786 15707
HULIANWANG DIGUI-105    
1 66915U 25285A   26062.77459249 -.00000098  00000+0  56168-4 0  9999
2 66915  50.0043 164.2778 0000072 299.0629  61.0236 13.29331720 12037
HULIANWANG DIGUI-106    
1 66916U 25285B   26062.54091465 -.00615961  00000+0 -13842+1 0  9997
2 66916  50.0047 165.0553 0006572  22.6417 337.4744 13.29317096 12009
HULIANWANG DIGUI-107    
1 66917U 25285C   26062.75789050 -.00000074  00000+0  10711-3 0  9992
2 66917  50.0020 164.1734 0000032 332.6704  27.4166 13.29331315 12037
HULIANWANG DIGUI-108    
1 66918U 25285D   26062.82470862 -.00000098  00000+0  55091-4 0  9996
2 66918  50.0042 163.8771 0000034   1.3720 358.7152 13.29331762 12041
HULIANWANG DIGUI-109    
1 66919U 25285E   26062.74117661 -.00000056  00000+0  14769-3 0  9993
2 66919  50.0066 164.1229 0000022   3.2719 356.8153 13.29331486 12049
HULIANWANG DIGUI-110    
1 66920U 25285F   26062.73282796 -.00000055  00000+0  14855-3 0  9991
2 66920  50.0098 164.1049 0000030 325.2590  34.8280 13.29331228 12036
HULIANWANG DIGUI-111    
1 66921U 25285G   26062.72447299 -.00000100  00000+0  52848-4 0  9998
2 66921  50.0114 164.0745 0000020 349.4651  10.6221 13.29331013 12032
HULIANWANG DIGUI-112    
1 66922U 25285H   26062.71612131 -.00000066  00000+0  12557-3 0  9990
2 66922  50.0078 164.0039 0000048 328.1694  31.9175 13.29331534 12031
