[{"OBJECT_NAME":"HULIANWANG DIGUI-97","OBJECT_ID":"2025-258B","EPOCH":"2026-03-03T18:17:46.455936","MEAN_MOTION":13.29332168,"ECCENTRICITY":3.92e-5,"INCLINATION":50.002,"RA_OF_ASC_NODE":314.0074,"ARG_OF_PERICENTER":93.2002,"MEAN_ANOMALY":266.8915,"EPHEMERIS_TYPE":0,"CLASSIFICATION_TYPE":"U","NORAD_CAT_ID":66413,"ELEMENT_SET_NO":999,"REV_AT_EPOCH":1570,"BSTAR":0.00016548,"MEAN_MOTION_DOT":-4.7e-7,"MEAN_MOTION_DDOT":0},{"OBJECT_NAME":"HULIANWANG DIGUI-98","OBJECT_ID":"2025-258C","EPOCH":"2026-03-03T18:05:42.614016","MEAN_MOTION":13.29333708,"ECCENTRICITY":4.32e-5,"INCLINATION":50.0057,"RA_OF_ASC_NODE":314.0053,"ARG_OF_PERICENTER":106.3388,"MEAN_ANOMALY":253.7532,"EPHEMERIS_TYPE":0,"CLASSIFICATION_TYPE":"U","NORAD_CAT_ID":66414,"ELEMENT_SET_NO":999,"REV_AT_EPOCH":1570,"BSTAR":0.00016013,"MEAN_MOTION_DOT":-5.0e-7,"MEAN_MOTION_DDOT":0},{"OBJECT_NAME":"HULIANWANG DIGUI-99","OBJECT_ID":"2025-258D","EPOCH":"2026-03-03T17:17:37.800960","MEAN_MOTION":13.2933133,"ECCENTRICITY":3.18e-5,"INCLINATION":50.0055,"RA_OF_ASC_NODE":313.8259,"ARG_OF_PERICENTER":85.1823,"MEAN_ANOMALY":274.9086,"EPHEMERIS_TYPE":0,"CLASSIFICATION_TYPE":"U","NORAD_CAT_ID":66415,"ELEMENT_SET_NO":999,"REV_AT_EPOCH":1569,"BSTAR":0.00016612,"MEAN_MOTION_DOT":-4.7e-7,"MEAN_MOTION_DDOT":0},{"OBJECT_NAME":"HULIANWANG DIGUI-100","OBJECT_ID":"2025-258E","EPOCH":"2026-03-03T17:53:41.376192","MEAN_MOTION":13.29334227,"ECCENTRICITY":3.0e-5,"INCLINATION":50.0059,"RA_OF_ASC_NODE":313.9642,"ARG_OF_PERICENTER":81.9934,"MEAN_ANOMALY":278.0972,"EPHEMERIS_TYPE":0,"CLASSIFICATION_TYPE":"U","NORAD_CAT_ID":66416,"ELEMENT_SET_NO":999,"REV_AT_EPOCH":1571,"BSTAR":0.00016075,"MEAN_MOTION_DOT":-4.9e-7,"MEAN_MOTION_DDOT":0},{"OBJECT_NAME":"HULIANWANG DIGUI-101","OBJECT_ID":"2025-258F","EPOCH":"2026-03-03T17:41:40.642080","MEAN_MOTION":13.29332439,"ECCENTRICITY":3.3e-5,"INCLINATION":50.0009,"RA_OF_ASC_NODE":313.8628,"ARG_OF_PERICENTER":78.378,"MEAN_ANOMALY":281.7129,"EPHEMERIS_TYPE":0,"CLASSIFICATION_TYPE":"U","NORAD_CAT_ID":66417,"ELEMENT_SET_NO":999,"REV_AT_EPOCH":1571,"BSTAR":0.0001624,"MEAN_MOTION_DOT":-4.9e-7,"MEAN_MOTION_DDOT":0},{"OBJECT_NAME":"HULIANWANG DIGUI-102","OBJECT_ID":"2025-258G","EPOCH":"2026-03-03T18:53:48.458688","MEAN_MOTION":13.29334426,"ECCENTRICITY":3.48e-5,"INCLINATION":50.0023,"RA_OF_ASC_NODE":313.4734,"ARG_OF_PERICENTER":99.981,"MEAN_ANOMALY":260.1101,"EPHEMERIS_TYPE":0,"CLASSIFICATION_TYPE":"U","NORAD_CAT_ID":66418,"ELEMENT_SET_NO":999,"REV_AT_EPOCH":1571,"BSTAR":0.00015124,"MEAN_MOTION_DOT":-5.4e-7,"MEAN_MOTION_DDOT":0},{"OBJECT_NAME":"HULIANWANG DIGUI-103","OBJECT_ID":"2025-258H","EPOCH":"2026-03-03T18:41:48.411456","MEAN_MOTION":13.2933342,"ECCENTRICITY":2.77e-5,"INCLINATION":50.0016,"RA_OF_ASC_NODE":313.4221,"ARG_OF_PERICENTER":79.6819,"MEAN_ANOMALY":280.4084,"EPHEMERIS_TYPE":0,"CLASSIFICATION_TYPE":"U","NORAD_CAT_ID":66419,"ELEMENT_SET_NO":999,"REV_AT_EPOCH":1571,"BSTAR":0.00014881,"MEAN_MOTION_DOT":-5.5e-7,"MEAN_MOTION_DDOT":0},{"OBJECT_NAME":"HULIANWANG DIGUI-104","OBJECT_ID":"2025-258J","EPOCH":"2026-03-03T18:29:47.873472","MEAN_MOTION":13.29332786,"ECCENTRICITY":3.68e-5,"INCLINATION":50.0033,"RA_OF_ASC_NODE":313.4011,"ARG_OF_PERICENTER":103.9793,"MEAN_ANOMALY":256.112,"EPHEMERIS_TYPE":0,"CLASSIFICATION_TYPE":"U","NORAD_CAT_ID":66420,"ELEMENT_SET_NO":999,"REV_AT_EPOCH":1570,"BSTAR":0.00014655,"MEAN_MOTION_DOT":-5.6e-7,"MEAN_MOTION_DDOT":0},{"OBJECT_NAME":"HULIANWANG DIGUI-105","OBJECT_ID":"2025-285A","EPOCH":"2026-03-03T18:35:24.791136","MEAN_MOTION":13.2933172,"ECCENTRICITY":7.2e-6,"INCLINATION":50.0043,"RA_OF_ASC_NODE":164.2778,"ARG_OF_PERICENTER":299.0629,"MEAN_ANOMALY":61.0236,"EPHEMERIS_TYPE":0,"CLASSIFICATION_TYPE":"U","NORAD_CAT_ID":66915,"ELEMENT_SET_NO":999,"REV_AT_EPOCH":1203,"BSTAR":5.6168e-5,"MEAN_MOTION_DOT":-9.8e-7,"MEAN_MOTION_DDOT":0},{"OBJECT_NAME":"HULIANWANG DIGUI-106","OBJECT_ID":"2025-285B","EPOCH":"2026-03-03T12:58:55.025760","MEAN_MOTION":13.29317096,"ECCENTRICITY":0.0006572,"INCLINATION":50.0047,"RA_OF_ASC_NODE":165.0553,"ARG_OF_PERICENTER":22.6417,"MEAN_ANOMALY":337.4744,"EPHEMERIS_TYPE":0,"CLASSIFICATION_TYPE":"U","NORAD_CAT_ID":66916,"ELEMENT_SET_NO":999,"REV_AT_EPOCH":1200,"BSTAR":-1.3842,"MEAN_MOTION_DOT":-0.00615961,"MEAN_MOTION_DDOT":0},{"OBJECT_NAME":"HULIANWANG DIGUI-107","OBJECT_ID":"2025-285C","EPOCH":"2026-03-03T18:11:21.739200","MEAN_MOTION":13.29331315,"ECCENTRICITY":3.2e-6,"INCLINATION":50.002,"RA_OF_ASC_NODE":164.1734,"ARG_OF_PERICENTER":332.6704,"MEAN_ANOMALY":27.4166,"EPHEMERIS_TYPE":0,"CLASSIFICATION_TYPE":"U","NORAD_CAT_ID":66917,"ELEMENT_SET_NO":999,"REV_AT_EPOCH":1203,"BSTAR":0.00010711,"MEAN_MOTION_DOT":-7.4e-7,"MEAN_MOTION_DDOT":0},{"OBJECT_NAME":"HULIANWANG DIGUI-108","OBJECT_ID":"2025-285D","EPOCH":"2026-03-03T19:47:34.824768","MEAN_MOTION":13.29331762,"ECCENTRICITY":3.4e-6,"INCLINATION":50.0042,"RA_OF_ASC_NODE":163.8771,"ARG_OF_PERICENTER":1.372,"MEAN_ANOMALY":358.7152,"EPHEMERIS_TYPE":0,"CLASSIFICATION_TYPE":"U","NORAD_CAT_ID":66918,"ELEMENT_SET_NO":999,"REV_AT_EPOCH":1204,"BSTAR":5.5091e-5,"MEAN_MOTION_DOT":-9.8e-7,"MEAN_MOTION_DDOT":0},{"OBJECT_NAME":"HULIANWANG DIGUI-109","OBJECT_ID":"2025-285E","EPOCH":"2026-03-03T17:47:17.659104","MEAN_MOTION":13.29331486,"ECCENTRICITY":2.2e-6,"INCLINATION":50.0066,"RA_OF_ASC_NODE":164.1229,"ARG_OF_PERICENTER":3.2719,"MEAN_ANOMALY":356.8153,"EPHEMERIS_TYPE":0,"CLASSIFICATION_TYPE":"U","NORAD_CAT_ID":66919,"ELEMENT_SET_NO":999,"REV_AT_EPOCH":1204,"BSTAR":0.00014769,"MEAN_MOTION_DOT":-5.6e-7,"MEAN_MOTION_DDOT":0},{"OBJECT_NAME":"HULIANWANG DIGUI-110","OBJECT_ID":"2025-285F","EPOCH":"2026-03-03T17:35:16.335744","MEAN_MOTION":13.29331228,"ECCENTRICITY":3.0e-6,"INCLINATION":50.0098,"RA_OF_ASC_NODE":164.1049,"ARG_OF_PERICENTER":325.259,"MEAN_ANOMALY":34.828,"EPHEMERIS_TYPE":0,"CLASSIFICATION_TYPE":"U","NORAD_CAT_ID":66920,"ELEMENT_SET_NO":999,"REV_AT_EPOCH":1203,"BSTAR":0.00014855,"MEAN_MOTION_DOT":-5.5e-7,"MEAN_MOTION_DDOT":0},{"OBJECT_NAME":"HULIANWANG DIGUI-111","OBJECT_ID":"2025-285G","EPOCH":"2026-03-03T17:23:14.466336","MEAN_MOTION":13.29331013,"ECCENTRICITY":2.0e-6,"INCLINATION":50.0114,"RA_OF_ASC_NODE":164.0745,"ARG_OF_PERICENTER":349.4651,"MEAN_ANOMALY":10.6221,"EPHEMERIS_TYPE":0,"CLASSIFICATION_TYPE":"U","NORAD_CAT_ID":66921,"ELEMENT_SET_NO":999,"REV_AT_EPOCH":1203,"BSTAR":5.2848e-5,"MEAN_MOTION_DOT":-1.0e-6,"MEAN_MOTION_DDOT":0},{"OBJECT_NAME":"HULIANWANG DIGUI-112","OBJECT_ID":"2025-285H","EPOCH":"2026-03-03T17:11:12.881184","MEAN_MOTION":13.29331534,"ECCENTRICITY":4.8e-6,"INCLINATION":50.0078,"RA_OF_ASC_NODE":164.0039,"ARG_OF_PERICENTER":328.1694,"MEAN_ANOMALY":31.9175,"EPHEMERIS_TYPE":0,"CLASSIFICATION_TYPE":"U","NORAD_CAT_ID":66922,"ELEMENT_SET_NO":999,"REV_AT_EPOCH":1203,"BSTAR":0.00012557,"MEAN_MOTION_DOT":-6.6e-7,"MEAN_MOTION_DDOT":0}]
